{
  "type": "FeatureCollection",
  "features": [
    {
      "type": "Feature",
      "properties": {
        "norad_id": 34389,
        "name": "COSMOS 2251 DEB",
        "group": "cosmos-2251-debris",
        "lat": -43.65598069273741,
        "lon": -120.58120694282141,
        "alt_km": 747.6066831839444,
        "timestamp": "2025-12-09T18:55:17.625909+00:00",
        "meta_object_name": "COSMOS 2251 DEB",
        "meta_object_id": "1993-036QE",
        "meta_epoch": "2025-12-09T04:40:56.277984",
        "meta_mean_motion": 14.41518195,
        "meta_eccentricity": 0.00287404,
        "meta_inclination": 74.0195,
        "meta_ra_of_asc_node": 256.3866,
        "meta_arg_of_pericenter": 9.087,
        "meta_mean_anomaly": 107.6825,
        "meta_ephemeris_type": 0,
        "meta_classification_type": "U",
        "meta_norad_cat_id": 34389,
        "meta_element_set_no": 999,
        "meta_rev_at_epoch": 87961,
        "meta_bstar": 0.00056729856,
        "meta_mean_motion_dot": 1.826e-05,
        "meta_mean_motion_ddot": 0,
        "tle_line1": "1 34389U 93036QE  25343.19509581  .00001826  00000+0  56730-3 0  9993",
        "tle_line2": "2 34389  74.0195 256.3866 0028740   9.0870 107.6825 14.41518195879615"
      },
      "geometry": {
        "type": "Point",
        "coordinates": [
          -120.58120694282141,
          -43.65598069273741
        ]
      }
    },
    {
      "type": "Feature",
      "properties": {
        "norad_id": 34396,
        "name": "COSMOS 2251 DEB",
        "group": "cosmos-2251-debris",
        "lat": -64.88776492049615,
        "lon": -12.538960579149137,
        "alt_km": 653.4229727812408,
        "timestamp": "2025-12-09T18:55:17.625919+00:00",
        "meta_object_name": "COSMOS 2251 DEB",
        "meta_object_id": "1993-036QM",
        "meta_epoch": "2025-12-09T11:31:49.359360",
        "meta_mean_motion": 14.74265988,
        "meta_eccentricity": 0.00065799,
        "meta_inclination": 74.0291,
        "meta_ra_of_asc_node": 130.398,
        "meta_arg_of_pericenter": 171.9841,
        "meta_mean_anomaly": 244.4554,
        "meta_ephemeris_type": 0,
        "meta_classification_type": "U",
        "meta_norad_cat_id": 34396,
        "meta_element_set_no": 999,
        "meta_rev_at_epoch": 88298,
        "meta_bstar": 0.0032934297,
        "meta_mean_motion_dot": 0.00021831,
        "meta_mean_motion_ddot": 0,
        "tle_line1": "1 34396U 93036QM  25343.48043240  .00021831  00000+0  32934-2 0  9995",
        "tle_line2": "2 34396  74.0291 130.3980 0006579 171.9841 244.4554 14.74265988882989"
      },
      "geometry": {
        "type": "Point",
        "coordinates": [
          -12.538960579149137,
          -64.88776492049615
        ]
      }
    },
    {
      "type": "Feature",
      "properties": {
        "norad_id": 34400,
        "name": "COSMOS 2251 DEB",
        "group": "cosmos-2251-debris",
        "lat": 53.03420592735267,
        "lon": -172.57484174914262,
        "alt_km": 409.8596678008398,
        "timestamp": "2025-12-09T18:55:17.625930+00:00",
        "meta_object_name": "COSMOS 2251 DEB",
        "meta_object_id": "1993-036QR",
        "meta_epoch": "2025-12-09T13:44:51.088992",
        "meta_mean_motion": 15.51565229,
        "meta_eccentricity": 0.00059483,
        "meta_inclination": 73.9665,
        "meta_ra_of_asc_node": 30.3656,
        "meta_arg_of_pericenter": 268.7226,
        "meta_mean_anomaly": 91.3306,
        "meta_ephemeris_type": 0,
        "meta_classification_type": "U",
        "meta_norad_cat_id": 34400,
        "meta_element_set_no": 999,
        "meta_rev_at_epoch": 89925,
        "meta_bstar": 0.0040468302,
        "meta_mean_motion_dot": 0.00247678,
        "meta_mean_motion_ddot": 0,
        "tle_line1": "1 34400U 93036QR  25343.57281353  .00247678  00000+0  40468-2 0  9990",
        "tle_line2": "2 34400  73.9665  30.3656 0005948 268.7226  91.3306 15.51565229899257"
      },
      "geometry": {
        "type": "Point",
        "coordinates": [
          -172.57484174914262,
          53.03420592735267
        ]
      }
    },
    {
      "type": "Feature",
      "properties": {
        "norad_id": 34409,
        "name": "COSMOS 2251 DEB",
        "group": "cosmos-2251-debris",
        "lat": -44.30856287996578,
        "lon": -63.75335858911838,
        "alt_km": 690.0298757176797,
        "timestamp": "2025-12-09T18:55:17.625939+00:00",
        "meta_object_name": "COSMOS 2251 DEB",
        "meta_object_id": "1993-036RA",
        "meta_epoch": "2025-12-09T14:44:57.177888",
        "meta_mean_motion": 14.58015689,
        "meta_eccentricity": 0.00796857,
        "meta_inclination": 74.063,
        "meta_ra_of_asc_node": 312.773,
        "meta_arg_of_pericenter": 27.9278,
        "meta_mean_anomaly": 94.3156,
        "meta_ephemeris_type": 0,
        "meta_classification_type": "U",
        "meta_norad_cat_id": 34409,
        "meta_element_set_no": 999,
        "meta_rev_at_epoch": 89147,
        "meta_bstar": 0.00044337053,
        "meta_mean_motion_dot": 2.098e-05,
        "meta_mean_motion_ddot": 0,
        "tle_line1": "1 34409U 93036RA  25343.61455067  .00002098  00000+0  44337-3 0  9994",
        "tle_line2": "2 34409  74.0630 312.7730 0079685  27.9278  94.3156 14.58015689891479"
      },
      "geometry": {
        "type": "Point",
        "coordinates": [
          -63.75335858911838,
          -44.30856287996578
        ]
      }
    },
    {
      "type": "Feature",
      "properties": {
        "norad_id": 34410,
        "name": "COSMOS 2251 DEB",
        "group": "cosmos-2251-debris",
        "lat": 63.16615275390627,
        "lon": -56.73294332654288,
        "alt_km": 493.1539138778926,
        "timestamp": "2025-12-09T18:55:17.625951+00:00",
        "meta_object_name": "COSMOS 2251 DEB",
        "meta_object_id": "1993-036RB",
        "meta_epoch": "2025-12-08T19:02:13.915104",
        "meta_mean_motion": 15.18330254,
        "meta_eccentricity": 0.00209567,
        "meta_inclination": 73.739,
        "meta_ra_of_asc_node": 270.1458,
        "meta_arg_of_pericenter": 112.3147,
        "meta_mean_anomaly": 278.6546,
        "meta_ephemeris_type": 0,
        "meta_classification_type": "U",
        "meta_norad_cat_id": 34410,
        "meta_element_set_no": 999,
        "meta_rev_at_epoch": 89714,
        "meta_bstar": 0.0033403576,
        "meta_mean_motion_dot": 0.00069601,
        "meta_mean_motion_ddot": 0,
        "tle_line1": "1 34410U 93036RB  25342.79321661  .00069601  00000+0  33404-2 0  9991",
        "tle_line2": "2 34410  73.7390 270.1458 0020956 112.3147 278.6546 15.18330254897140"
      },
      "geometry": {
        "type": "Point",
        "coordinates": [
          -56.73294332654288,
          63.16615275390627
        ]
      }
    },
    {
      "type": "Feature",
      "properties": {
        "norad_id": 34412,
        "name": "COSMOS 2251 DEB",
        "group": "cosmos-2251-debris",
        "lat": -71.78536365084716,
        "lon": -90.87251678386832,
        "alt_km": 853.3296552836764,
        "timestamp": "2025-12-09T18:55:17.625964+00:00",
        "meta_object_name": "COSMOS 2251 DEB",
        "meta_object_id": "1993-036RD",
        "meta_epoch": "2025-12-08T23:23:24.222624",
        "meta_mean_motion": 14.47068319,
        "meta_eccentricity": 0.0187102,
        "meta_inclination": 73.9489,
        "meta_ra_of_asc_node": 331.6897,
        "meta_arg_of_pericenter": 67.6677,
        "meta_mean_anomaly": 294.4194,
        "meta_ephemeris_type": 0,
        "meta_classification_type": "U",
        "meta_norad_cat_id": 34412,
        "meta_element_set_no": 999,
        "meta_rev_at_epoch": 87596,
        "meta_bstar": 0.0012474,
        "meta_mean_motion_dot": 5.633e-05,
        "meta_mean_motion_ddot": 0,
        "tle_line1": "1 34412U 93036RD  25342.97458591  .00005633  00000+0  12474-2 0  9995",
        "tle_line2": "2 34412  73.9489 331.6897 0187102  67.6677 294.4194 14.47068319875962"
      },
      "geometry": {
        "type": "Point",
        "coordinates": [
          -90.87251678386832,
          -71.78536365084716
        ]
      }
    },
    {
      "type": "Feature",
      "properties": {
        "norad_id": 34413,
        "name": "COSMOS 2251 DEB",
        "group": "cosmos-2251-debris",
        "lat": -58.204092330936156,
        "lon": 117.74689265964969,
        "alt_km": 818.0995135422027,
        "timestamp": "2025-12-09T18:55:17.625974+00:00",
        "meta_object_name": "COSMOS 2251 DEB",
        "meta_object_id": "1993-036RE",
        "meta_epoch": "2025-12-09T04:55:13.938816",
        "meta_mean_motion": 14.29051962,
        "meta_eccentricity": 0.00908663,
        "meta_inclination": 74.0317,
        "meta_ra_of_asc_node": 271.2975,
        "meta_arg_of_pericenter": 348.4182,
        "meta_mean_anomaly": 134.6327,
        "meta_ephemeris_type": 0,
        "meta_classification_type": "U",
        "meta_norad_cat_id": 34413,
        "meta_element_set_no": 999,
        "meta_rev_at_epoch": 87080,
        "meta_bstar": 0.0021262677,
        "meta_mean_motion_dot": 5.607e-05,
        "meta_mean_motion_ddot": 0,
        "tle_line1": "1 34413U 93036RE  25343.20502244  .00005607  00000+0  21263-2 0  9995",
        "tle_line2": "2 34413  74.0317 271.2975 0090866 348.4182 134.6327 14.29051962870809"
      },
      "geometry": {
        "type": "Point",
        "coordinates": [
          117.74689265964969,
          -58.204092330936156
        ]
      }
    }
  ]
}